[{"OBJECT_NAME":"ONEWEB-0027","OBJECT_ID":"2020-020J","EPOCH":"2025-12-31T02:34:27.221664","MEAN_MOTION":13.17648619,"ECCENTRICITY":0.0001423,"INCLINATION":87.9099,"RA_OF_ASC_NODE":39.2551,"ARG_OF_PERICENTER":104.089,"MEAN_ANOMALY":256.0399,"EPHEMERIS_TYPE":0,"CLASSIFICATION_TYPE":"U","NORAD_CAT_ID":45432,"ELEMENT_SET_NO":999,"REV_AT_EPOCH":28422,"BSTAR":8.2948577e-5,"MEAN_MOTION_DOT":4.5e-7,"MEAN_MOTION_DDOT":0},{"OBJECT_NAME":"ONEWEB-0064","OBJECT_ID":"2020-020K","EPOCH":"2025-12-31T04:19:29.313696","MEAN_MOTION":13.11418068,"ECCENTRICITY":0.00016074,"INCLINATION":87.8839,"RA_OF_ASC_NODE":54.5247,"ARG_OF_PERICENTER":100.1871,"MEAN_ANOMALY":259.9438,"EPHEMERIS_TYPE":0,"CLASSIFICATION_TYPE":"U","NORAD_CAT_ID":45433,"ELEMENT_SET_NO":999,"REV_AT_EPOCH":28066,"BSTAR":-0.00086012317,"MEAN_MOTION_DOT":-2.92e-6,"MEAN_MOTION_DDOT":0},{"OBJECT_NAME":"ONEWEB-0018","OBJECT_ID":"2020-020L","EPOCH":"2025-12-31T05:05:53.304000","MEAN_MOTION":13.11415707,"ECCENTRICITY":0.00017958,"INCLINATION":87.8843,"RA_OF_ASC_NODE":54.5092,"ARG_OF_PERICENTER":93.5824,"MEAN_ANOMALY":266.5509,"EPHEMERIS_TYPE":0,"CLASSIFICATION_TYPE":"U","NORAD_CAT_ID":45434,"ELEMENT_SET_NO":999,"REV_AT_EPOCH":28061,"BSTAR":0.0016575897,"MEAN_MOTION_DOT":6.0e-6,"MEAN_MOTION_DDOT":0},{"OBJECT_NAME":"ONEWEB-0083","OBJECT_ID":"2020-020M","EPOCH":"2025-12-31T04:52:28.100064","MEAN_MOTION":13.11416971,"ECCENTRICITY":0.00017036,"INCLINATION":87.8844,"RA_OF_ASC_NODE":54.4996,"ARG_OF_PERICENTER":97.7598,"MEAN_ANOMALY":262.3723,"EPHEMERIS_TYPE":0,"CLASSIFICATION_TYPE":"U","NORAD_CAT_ID":45435,"ELEMENT_SET_NO":999,"REV_AT_EPOCH":28065,"BSTAR":0.0015292521,"MEAN_MOTION_DOT":5.55e-6,"MEAN_MOTION_DDOT":0},{"OBJECT_NAME":"ONEWEB-0095","OBJECT_ID":"2020-020N","EPOCH":"2025-12-31T04:39:13.795488","MEAN_MOTION":13.11419299,"ECCENTRICITY":0.00018681,"INCLINATION":87.8843,"RA_OF_ASC_NODE":54.5121,"ARG_OF_PERICENTER":124.4861,"MEAN_ANOMALY":235.6443,"EPHEMERIS_TYPE":0,"CLASSIFICATION_TYPE":"U","NORAD_CAT_ID":45436,"ELEMENT_SET_NO":999,"REV_AT_EPOCH":28065,"BSTAR":0.00049024149,"MEAN_MOTION_DOT":1.86e-6,"MEAN_MOTION_DDOT":0},{"OBJECT_NAME":"ONEWEB-0092","OBJECT_ID":"2020-020P","EPOCH":"2025-12-31T03:58:44.623200","MEAN_MOTION":13.11415514,"ECCENTRICITY":0.00018519,"INCLINATION":87.8838,"RA_OF_ASC_NODE":54.5165,"ARG_OF_PERICENTER":107.6671,"MEAN_ANOMALY":252.4659,"EPHEMERIS_TYPE":0,"CLASSIFICATION_TYPE":"U","NORAD_CAT_ID":45437,"ELEMENT_SET_NO":999,"REV_AT_EPOCH":28076,"BSTAR":-0.0010654625,"MEAN_MOTION_DOT":-3.65e-6,"MEAN_MOTION_DDOT":0},{"OBJECT_NAME":"ONEWEB-0085","OBJECT_ID":"2020-020Q","EPOCH":"2025-12-31T04:51:14.433696","MEAN_MOTION":13.11417377,"ECCENTRICITY":0.00017878,"INCLINATION":87.8834,"RA_OF_ASC_NODE":54.5173,"ARG_OF_PERICENTER":100.2615,"MEAN_ANOMALY":259.8715,"EPHEMERIS_TYPE":0,"CLASSIFICATION_TYPE":"U","NORAD_CAT_ID":45438,"ELEMENT_SET_NO":999,"REV_AT_EPOCH":28065,"BSTAR":0.0013316884,"MEAN_MOTION_DOT":4.85e-6,"MEAN_MOTION_DDOT":0},{"OBJECT_NAME":"ONEWEB-0096","OBJECT_ID":"2020-020R","EPOCH":"2025-12-31T04:53:40.871328","MEAN_MOTION":13.11417622,"ECCENTRICITY":0.00018325,"INCLINATION":87.8846,"RA_OF_ASC_NODE":54.4989,"ARG_OF_PERICENTER":99.5098,"MEAN_ANOMALY":260.6237,"EPHEMERIS_TYPE":0,"CLASSIFICATION_TYPE":"U","NORAD_CAT_ID":45439,"ELEMENT_SET_NO":999,"REV_AT_EPOCH":28064,"BSTAR":0.0015705822,"MEAN_MOTION_DOT":5.69e-6,"MEAN_MOTION_DDOT":0},{"OBJECT_NAME":"ONEWEB-0037","OBJECT_ID":"2020-020S","EPOCH":"2025-12-31T04:25:35.814720","MEAN_MOTION":13.11418032,"ECCENTRICITY":0.00017776,"INCLINATION":87.8855,"RA_OF_ASC_NODE":54.4743,"ARG_OF_PERICENTER":102.5034,"MEAN_ANOMALY":257.6293,"EPHEMERIS_TYPE":0,"CLASSIFICATION_TYPE":"U","NORAD_CAT_ID":45440,"ELEMENT_SET_NO":999,"REV_AT_EPOCH":28067,"BSTAR":-0.00071857641,"MEAN_MOTION_DOT":-2.42e-6,"MEAN_MOTION_DDOT":0},{"OBJECT_NAME":"ONEWEB-0042","OBJECT_ID":"2020-020T","EPOCH":"2025-12-31T04:38:49.804800","MEAN_MOTION":13.11417966,"ECCENTRICITY":0.00018747,"INCLINATION":87.8845,"RA_OF_ASC_NODE":54.5003,"ARG_OF_PERICENTER":101.9575,"MEAN_ANOMALY":258.1763,"EPHEMERIS_TYPE":0,"CLASSIFICATION_TYPE":"U","NORAD_CAT_ID":45441,"ELEMENT_SET_NO":999,"REV_AT_EPOCH":28064,"BSTAR":0.00066819659,"MEAN_MOTION_DOT":2.5e-6,"MEAN_MOTION_DDOT":0},{"OBJECT_NAME":"ONEWEB-0098","OBJECT_ID":"2020-020U","EPOCH":"2025-12-31T04:32:55.652064","MEAN_MOTION":13.11418427,"ECCENTRICITY":0.00017116,"INCLINATION":87.8846,"RA_OF_ASC_NODE":54.5131,"ARG_OF_PERICENTER":98.3176,"MEAN_ANOMALY":261.8146,"EPHEMERIS_TYPE":0,"CLASSIFICATION_TYPE":"U","NORAD_CAT_ID":45442,"ELEMENT_SET_NO":999,"REV_AT_EPOCH":28062,"BSTAR":1.4964808e-5,"MEAN_MOTION_DOT":1.8e-7,"MEAN_MOTION_DDOT":0},{"OBJECT_NAME":"ONEWEB-0055","OBJECT_ID":"2020-020V","EPOCH":"2025-12-31T04:08:30.084288","MEAN_MOTION":13.11416775,"ECCENTRICITY":0.0001677,"INCLINATION":87.8843,"RA_OF_ASC_NODE":54.5166,"ARG_OF_PERICENTER":98.099,"MEAN_ANOMALY":262.0328,"EPHEMERIS_TYPE":0,"CLASSIFICATION_TYPE":"U","NORAD_CAT_ID":45443,"ELEMENT_SET_NO":999,"REV_AT_EPOCH":28059,"BSTAR":-0.0013856817,"MEAN_MOTION_DOT":-4.78e-6,"MEAN_MOTION_DDOT":0},{"OBJECT_NAME":"ONEWEB-0093","OBJECT_ID":"2020-020W","EPOCH":"2025-12-31T03:33:18.412992","MEAN_MOTION":13.11400542,"ECCENTRICITY":0.00021095,"INCLINATION":87.8842,"RA_OF_ASC_NODE":54.5091,"ARG_OF_PERICENTER":93.6815,"MEAN_ANOMALY":266.4554,"EPHEMERIS_TYPE":0,"CLASSIFICATION_TYPE":"U","NORAD_CAT_ID":45444,"ELEMENT_SET_NO":999,"REV_AT_EPOCH":28065,"BSTAR":0.010465065,"MEAN_MOTION_DOT":3.722e-5,"MEAN_MOTION_DDOT":0},{"OBJECT_NAME":"ONEWEB-0029","OBJECT_ID":"2020-020X","EPOCH":"2025-12-31T03:56:16.727136","MEAN_MOTION":13.11414867,"ECCENTRICITY":0.00018949,"INCLINATION":87.8842,"RA_OF_ASC_NODE":54.5183,"ARG_OF_PERICENTER":96.7547,"MEAN_ANOMALY":263.3796,"EPHEMERIS_TYPE":0,"CLASSIFICATION_TYPE":"U","NORAD_CAT_ID":45445,"ELEMENT_SET_NO":999,"REV_AT_EPOCH":28063,"BSTAR":-0.0010304379,"MEAN_MOTION_DOT":-3.52e-6,"MEAN_MOTION_DDOT":0},{"OBJECT_NAME":"ONEWEB-0068","OBJECT_ID":"2020-020Y","EPOCH":"2025-12-31T05:22:46.744032","MEAN_MOTION":13.11414552,"ECCENTRICITY":0.00019322,"INCLINATION":87.8844,"RA_OF_ASC_NODE":54.4958,"ARG_OF_PERICENTER":95.4766,"MEAN_ANOMALY":264.6582,"EPHEMERIS_TYPE":0,"CLASSIFICATION_TYPE":"U","NORAD_CAT_ID":45446,"ELEMENT_SET_NO":999,"REV_AT_EPOCH":28058,"BSTAR":0.00085226335,"MEAN_MOTION_DOT":3.15e-6,"MEAN_MOTION_DDOT":0},{"OBJECT_NAME":"ONEWEB-0046","OBJECT_ID":"2020-020Z","EPOCH":"2025-12-31T03:20:54.629952","MEAN_MOTION":13.11417939,"ECCENTRICITY":0.00019918,"INCLINATION":87.8842,"RA_OF_ASC_NODE":54.5202,"ARG_OF_PERICENTER":102.7915,"MEAN_ANOMALY":257.3436,"EPHEMERIS_TYPE":0,"CLASSIFICATION_TYPE":"U","NORAD_CAT_ID":45447,"ELEMENT_SET_NO":999,"REV_AT_EPOCH":28058,"BSTAR":0.0016181809,"MEAN_MOTION_DOT":5.86e-6,"MEAN_MOTION_DDOT":0},{"OBJECT_NAME":"ONEWEB-0063","OBJECT_ID":"2020-020AA","EPOCH":"2025-12-31T04:02:23.444160","MEAN_MOTION":13.11415461,"ECCENTRICITY":0.00019189,"INCLINATION":87.8839,"RA_OF_ASC_NODE":54.512,"ARG_OF_PERICENTER":106.6456,"MEAN_ANOMALY":253.4882,"EPHEMERIS_TYPE":0,"CLASSIFICATION_TYPE":"U","NORAD_CAT_ID":45448,"ELEMENT_SET_NO":999,"REV_AT_EPOCH":28067,"BSTAR":-0.00120964,"MEAN_MOTION_DOT":-4.16e-6,"MEAN_MOTION_DDOT":0},{"OBJECT_NAME":"ONEWEB-0019","OBJECT_ID":"2020-020AB","EPOCH":"2025-12-31T04:58:18.954912","MEAN_MOTION":13.11415623,"ECCENTRICITY":0.00016735,"INCLINATION":87.8832,"RA_OF_ASC_NODE":54.5064,"ARG_OF_PERICENTER":95.2527,"MEAN_ANOMALY":264.8792,"EPHEMERIS_TYPE":0,"CLASSIFICATION_TYPE":"U","NORAD_CAT_ID":45449,"ELEMENT_SET_NO":999,"REV_AT_EPOCH":28052,"BSTAR":0.0014718265,"MEAN_MOTION_DOT":5.34e-6,"MEAN_MOTION_DDOT":0},{"OBJECT_NAME":"ONEWEB-0094","OBJECT_ID":"2020-020AC","EPOCH":"2025-12-31T03:44:56.164704","MEAN_MOTION":13.17648033,"ECCENTRICITY":0.00017801,"INCLINATION":87.91,"RA_OF_ASC_NODE":39.2413,"ARG_OF_PERICENTER":91.9826,"MEAN_ANOMALY":268.1509,"EPHEMERIS_TYPE":0,"CLASSIFICATION_TYPE":"U","NORAD_CAT_ID":45450,"ELEMENT_SET_NO":999,"REV_AT_EPOCH":28418,"BSTAR":0.00013849348,"MEAN_MOTION_DOT":6.7e-7,"MEAN_MOTION_DDOT":0},{"OBJECT_NAME":"ONEWEB-0087","OBJECT_ID":"2020-020AD","EPOCH":"2025-12-31T04:16:50.697120","MEAN_MOTION":13.11418805,"ECCENTRICITY":0.00019856,"INCLINATION":87.8855,"RA_OF_ASC_NODE":54.4707,"ARG_OF_PERICENTER":92.8182,"MEAN_ANOMALY":267.3173,"EPHEMERIS_TYPE":0,"CLASSIFICATION_TYPE":"U","NORAD_CAT_ID":45451,"ELEMENT_SET_NO":999,"REV_AT_EPOCH":28056,"BSTAR":-0.0011433046,"MEAN_MOTION_DOT":-3.93e-6,"MEAN_MOTION_DDOT":0},{"OBJECT_NAME":"ONEWEB-0082","OBJECT_ID":"2020-020AE","EPOCH":"2025-12-31T04:12:09.656928","MEAN_MOTION":13.11417422,"ECCENTRICITY":0.00019433,"INCLINATION":87.8855,"RA_OF_ASC_NODE":54.4966,"ARG_OF_PERICENTER":93.9011,"MEAN_ANOMALY":266.234,"EPHEMERIS_TYPE":0,"CLASSIFICATION_TYPE":"U","NORAD_CAT_ID":45452,"ELEMENT_SET_NO":999,"REV_AT_EPOCH":28065,"BSTAR":-0.0011953792,"MEAN_MOTION_DOT":-4.11e-6,"MEAN_MOTION_DDOT":0},{"OBJECT_NAME":"ONEWEB-0050","OBJECT_ID":"2020-020AF","EPOCH":"2025-12-31T05:57:23.619456","MEAN_MOTION":14.89689125,"ECCENTRICITY":0.00023224,"INCLINATION":88.9233,"RA_OF_ASC_NODE":256.1184,"ARG_OF_PERICENTER":160.5945,"MEAN_ANOMALY":199.5373,"EPHEMERIS_TYPE":0,"CLASSIFICATION_TYPE":"U","NORAD_CAT_ID":45453,"ELEMENT_SET_NO":999,"REV_AT_EPOCH":31537,"BSTAR":0.00061634253,"MEAN_MOTION_DOT":5.915e-5,"MEAN_MOTION_DDOT":0},{"OBJECT_NAME":"ONEWEB-0034","OBJECT_ID":"2020-020AG","EPOCH":"2025-12-31T04:42:41.389632","MEAN_MOTION":13.11419191,"ECCENTRICITY":0.0001767,"INCLINATION":87.8844,"RA_OF_ASC_NODE":54.5039,"ARG_OF_PERICENTER":98.6895,"MEAN_ANOMALY":261.4433,"EPHEMERIS_TYPE":0,"CLASSIFICATION_TYPE":"U","NORAD_CAT_ID":45454,"ELEMENT_SET_NO":999,"REV_AT_EPOCH":28057,"BSTAR":0.00079491787,"MEAN_MOTION_DOT":2.94e-6,"MEAN_MOTION_DDOT":0}]
